start=new Date('2023-06-26T00:00:00.000Z').valueOf();
sats=[{"OBJECT_TYPE":"PAYLOAD","TLE_LINE2":"2 53232  97.6558 237.6129 0003674 143.6894 216.4580 15.01259213 51081","APOAPSIS":"565.564","EPOCH":"2023-06-25T15:57:53.707680","MEAN_ELEMENT_THEORY":"SGP4","COUNTRY_CODE":"US","SITE":"AFWTR","ECCENTRICITY":"0.00036740","MEAN_MOTION":"15.01259213","EPHEMERIS_TYPE":"0","CENTER_NAME":"EARTH","REF_FRAME":"TEME","MEAN_MOTION_DOT":"0.00001110","PERIOD":"95.919","CLASSIFICATION_TYPE":"U","RCS_SIZE":"LARGE","OBJECT_NAME":"STARLINK-4371","REV_AT_EPOCH":"5108","BSTAR":"0.00009103900000","INCLINATION":"97.6558","DECAY_DATE":null,"PERIAPSIS":"560.464","ARG_OF_PERICENTER":"143.6894","LAUNCH_DATE":"2022-07-22","MEAN_ANOMALY":"216.4580","ELEMENT_SET_NO":"999","MEAN_MOTION_DDOT":"0.0000000000000","RA_OF_ASC_NODE":"237.6129","GP_ID":"234550926","NORAD_CAT_ID":"53232","TLE_LINE1":"1 53232U 22084AV  23176.66520495  .00001110  00000-0  91039-4 0  9996","OBJECT_ID":"2022-084AV","FILE":"3942705","SEMIMAJOR_AXIS":"6941.149","TIME_SYSTEM":"UTC"},{"ELEMENT_SET_NO":"999","MEAN_MOTION_DDOT":"0.0000000000000","RA_OF_ASC_NODE":"237.6177","ARG_OF_PERICENTER":"205.9527","DECAY_DATE":null,"PERIAPSIS":"562.555","LAUNCH_DATE":"2022-07-22","MEAN_ANOMALY":"154.1664","OBJECT_ID":"2022-084AW","FILE":"3942743","SEMIMAJOR_AXIS":"6941.144","TIME_SYSTEM":"UTC","NORAD_CAT_ID":"53233","GP_ID":"234550930","TLE_LINE1":"1 53233U 22084AW  23176.65988931  .00001064  00000-0  87413-4 0  9998","ECCENTRICITY":"0.00006540","SITE":"AFWTR","COUNTRY_CODE":"US","EPHEMERIS_TYPE":"0","MEAN_MOTION":"15.01260935","CENTER_NAME":"EARTH","PERIOD":"95.919","REF_FRAME":"TEME","MEAN_MOTION_DOT":"0.00001064","TLE_LINE2":"2 53233  97.6587 237.6177 0000654 205.9527 154.1664 15.01260935 51081","OBJECT_TYPE":"PAYLOAD","APOAPSIS":"563.463","MEAN_ELEMENT_THEORY":"SGP4","EPOCH":"2023-06-25T15:50:14.436384","REV_AT_EPOCH":"5108","OBJECT_NAME":"STARLINK-4372","BSTAR":"0.00008741300000","INCLINATION":"97.6587","CLASSIFICATION_TYPE":"U","RCS_SIZE":"LARGE"},{"MEAN_ELEMENT_THEORY":"SGP4","EPOCH":"2023-06-25T03:04:42.835584","OBJECT_TYPE":"PAYLOAD","TLE_LINE2":"2 53234  97.6580 237.0835 0000984 242.2000 117.9125 15.01267377 51015","APOAPSIS":"563.672","CENTER_NAME":"EARTH","PERIOD":"95.919","REF_FRAME":"TEME","MEAN_MOTION_DOT":"0.00000444","ECCENTRICITY":"0.00009840","SITE":"AFWTR","COUNTRY_CODE":"US","EPHEMERIS_TYPE":"0","MEAN_MOTION":"15.01267377","RCS_SIZE":"LARGE","CLASSIFICATION_TYPE":"U","BSTAR":"0.00003914900000","INCLINATION":"97.6580","REV_AT_EPOCH":"5101","OBJECT_NAME":"STARLINK-4368","MEAN_ANOMALY":"117.9125","ARG_OF_PERICENTER":"242.2000","DECAY_DATE":null,"PERIAPSIS":"562.306","LAUNCH_DATE":"2022-07-22","RA_OF_ASC_NODE":"237.0835","ELEMENT_SET_NO":"999","MEAN_MOTION_DDOT":"0.0000000000000","TLE_LINE1":"1 53234U 22084AX  23176.12827356  .00000444  00000-0  39149-4 0  9998","GP_ID":"234537348","NORAD_CAT_ID":"53234","SEMIMAJOR_AXIS":"6941.124","TIME_SYSTEM":"UTC","OBJECT_ID":"2022-084AX","FILE":"3942132"},{"OBJECT_ID":"2022-086A","FILE":"3942721","SEMIMAJOR_AXIS":"6917.864","TIME_SYSTEM":"UTC","GP_ID":"234551150","NORAD_CAT_ID":"53242","TLE_LINE1":"1 53242U 22086A   23176.66673697  .00002503  00000-0  17526-3 0  9997","ELEMENT_SET_NO":"999","MEAN_MOTION_DDOT":"0.0000000000000","RA_OF_ASC_NODE":"314.5201","ARG_OF_PERICENTER":"84.1691","PERIAPSIS":"538.956","DECAY_DATE":null,"LAUNCH_DATE":"2022-07-24","MEAN_ANOMALY":"275.9429","REV_AT_EPOCH":"5165","OBJECT_NAME":"STARLINK-4056","INCLINATION":"53.2175","BSTAR":"0.00017526000000","CLASSIFICATION_TYPE":"U","RCS_SIZE":"LARGE","SITE":"AFETR","ECCENTRICITY":"0.00011180","COUNTRY_CODE":"US","EPHEMERIS_TYPE":"0","MEAN_MOTION":"15.08845209","CENTER_NAME":"EARTH","PERIOD":"95.437","REF_FRAME":"TEME","MEAN_MOTION_DOT":"0.00002503","TLE_LINE2":"2 53242  53.2175 314.5201 0001118  84.1691 275.9429 15.08845209 51654","OBJECT_TYPE":"PAYLOAD","APOAPSIS":"540.503","MEAN_ELEMENT_THEORY":"SGP4","EPOCH":"2023-06-25T16:00:06.074208"},{"LAUNCH_DATE":"2022-07-24","ARG_OF_PERICENTER":"88.5840","DECAY_DATE":null,"PERIAPSIS":"538.987","MEAN_ANOMALY":"271.5275","MEAN_MOTION_DDOT":"0.0000000000000","ELEMENT_SET_NO":"999","RA_OF_ASC_NODE":"319.5239","NORAD_CAT_ID":"53243","GP_ID":"234551638","TLE_LINE1":"1 53243U 22086B   23176.66811890  .00003684  00000-0  24942-3 0  9998","FILE":"3942721","OBJECT_ID":"2022-086B","TIME_SYSTEM":"UTC","SEMIMAJOR_AXIS":"6917.865","APOAPSIS":"540.473","TLE_LINE2":"2 53243  53.2174 319.5239 0001074  88.5840 271.5275 15.08845183 51589","OBJECT_TYPE":"PAYLOAD","MEAN_ELEMENT_THEORY":"SGP4","EPOCH":"2023-06-25T16:02:05.472960","EPHEMERIS_TYPE":"0","MEAN_MOTION":"15.08845183","ECCENTRICITY":"0.00010740","SITE":"AFETR","COUNTRY_CODE":"US","PERIOD":"95.437","MEAN_MOTION_DOT":"0.00003684","REF_FRAME":"TEME","CENTER_NAME":"EARTH","CLASSIFICATION_TYPE":"U","RCS_SIZE":"LARGE","REV_AT_EPOCH":"5158","OBJECT_NAME":"STARLINK-4047","BSTAR":"0.00024942000000","INCLINATION":"53.2174"},{"RCS_SIZE":"LARGE","CLASSIFICATION_TYPE":"U","INCLINATION":"53.2163","BSTAR":"0.00003398200000","OBJECT_NAME":"STARLINK-4125","REV_AT_EPOCH":"5150","EPOCH":"2023-06-25T03:03:06.539328","MEAN_ELEMENT_THEORY":"SGP4","APOAPSIS":"540.586","TLE_LINE2":"2 53244  53.2163 321.9524 0001207  80.6242 279.4887 15.08838279 51505","OBJECT_TYPE":"PAYLOAD","MEAN_MOTION_DOT":"0.00000253","REF_FRAME":"TEME","PERIOD":"95.438","CENTER_NAME":"EARTH","MEAN_MOTION":"15.08838279","EPHEMERIS_TYPE":"0","COUNTRY_CODE":"US","ECCENTRICITY":"0.00012070","SITE":"AFETR","TLE_LINE1":"1 53244U 22086C   23176.12715902  .00000253  00000-0  33982-4 0  9991","NORAD_CAT_ID":"53244","GP_ID":"234537869","TIME_SYSTEM":"UTC","SEMIMAJOR_AXIS":"6917.886","FILE":"3942181","OBJECT_ID":"2022-086C","MEAN_ANOMALY":"279.4887","LAUNCH_DATE":"2022-07-24","DECAY_DATE":null,"PERIAPSIS":"538.916","ARG_OF_PERICENTER":"80.6242","RA_OF_ASC_NODE":"321.9524","MEAN_MOTION_DDOT":"0.0000000000000","ELEMENT_SET_NO":"999"},{"LAUNCH_DATE":"2022-07-24","ARG_OF_PERICENTER":"83.8832","DECAY_DATE":null,"PERIAPSIS":"538.835","MEAN_ANOMALY":"276.2308","MEAN_MOTION_DDOT":"0.0000000000000","ELEMENT_SET_NO":"999","RA_OF_ASC_NODE":"320.7295","NORAD_CAT_ID":"53245","GP_ID":"234544335","TLE_LINE1":"1 53245U 22086D   23176.39947838  .00003628  00000-0  24588-3 0  9996","FILE":"3942447","OBJECT_ID":"2022-086D","TIME_SYSTEM":"UTC","SEMIMAJOR_AXIS":"6917.872","APOAPSIS":"540.639","TLE_LINE2":"2 53245  53.2167 320.7295 0001304  83.8832 276.2308 15.08842854 51541","OBJECT_TYPE":"PAYLOAD","MEAN_ELEMENT_THEORY":"SGP4","EPOCH":"2023-06-25T09:35:14.932032","EPHEMERIS_TYPE":"0","MEAN_MOTION":"15.08842854","ECCENTRICITY":"0.00013040","SITE":"AFETR","COUNTRY_CODE":"US","PERIOD":"95.437","REF_FRAME":"TEME","MEAN_MOTION_DOT":"0.00003628","CENTER_NAME":"EARTH","CLASSIFICATION_TYPE":"U","RCS_SIZE":"LARGE","REV_AT_EPOCH":"5154","OBJECT_NAME":"STARLINK-4124","INCLINATION":"53.2167","BSTAR":"0.00024588000000"},{"TIME_SYSTEM":"UTC","SEMIMAJOR_AXIS":"6917.874","FILE":"3942181","OBJECT_ID":"2022-086E","TLE_LINE1":"1 53246U 22086E   23176.13083448  .00001404  00000-0  10628-3 0  9997","GP_ID":"234538856","NORAD_CAT_ID":"53246","RA_OF_ASC_NODE":"321.9401","MEAN_MOTION_DDOT":"0.0000000000000","ELEMENT_SET_NO":"999","MEAN_ANOMALY":"94.6958","LAUNCH_DATE":"2022-07-24","ARG_OF_PERICENTER":"265.3967","DECAY_DATE":null,"PERIAPSIS":"539.332","INCLINATION":"53.2176","BSTAR":"0.00010628000000","REV_AT_EPOCH":"5150","OBJECT_NAME":"STARLINK-4131","RCS_SIZE":"LARGE","CLASSIFICATION_TYPE":"U","PERIOD":"95.437","MEAN_MOTION_DOT":"0.00001404","REF_FRAME":"TEME","CENTER_NAME":"EARTH","EPHEMERIS_TYPE":"0","MEAN_MOTION":"15.08842147","ECCENTRICITY":"0.00005880","SITE":"AFETR","COUNTRY_CODE":"US","MEAN_ELEMENT_THEORY":"SGP4","EPOCH":"2023-06-25T03:08:24.099072","APOAPSIS":"540.146","OBJECT_TYPE":"PAYLOAD","TLE_LINE2":"2 53246  53.2176 321.9401 0000588 265.3967  94.6958 15.08842147 51507"},{"RA_OF_ASC_NODE":"314.6425","MEAN_MOTION_DDOT":"0.0000000000000","ELEMENT_SET_NO":"999","MEAN_ANOMALY":"263.6743","LAUNCH_DATE":"2022-07-24","ARG_OF_PERICENTER":"96.4357","DECAY_DATE":null,"PERIAPSIS":"539.069","TIME_SYSTEM":"UTC","SEMIMAJOR_AXIS":"6917.859","FILE":"3942727","OBJECT_ID":"2022-086F","TLE_LINE1":"1 53247U 22086F   23176.68147456  .00001390  00000-0  10536-3 0  9990","NORAD_CAT_ID":"53247","GP_ID":"234551660","PERIOD":"95.437","MEAN_MOTION_DOT":"0.00001390","REF_FRAME":"TEME","CENTER_NAME":"EARTH","EPHEMERIS_TYPE":"0","MEAN_MOTION":"15.08846866","ECCENTRICITY":"0.00009470","SITE":"AFETR","COUNTRY_CODE":"US","MEAN_ELEMENT_THEORY":"SGP4","EPOCH":"2023-06-25T16:21:19.401984","APOAPSIS":"540.380","OBJECT_TYPE":"PAYLOAD","TLE_LINE2":"2 53247  53.2177 314.6425 0000947  96.4357 263.6743 15.08846866 51657","INCLINATION":"53.2177","BSTAR":"0.00010536000000","REV_AT_EPOCH":"5165","OBJECT_NAME":"STARLINK-4061","RCS_SIZE":"LARGE","CLASSIFICATION_TYPE":"U"},{"TLE_LINE2":"2 53248  53.2159 314.6197 0000784 101.6970 258.4110 15.08838194 51658","OBJECT_TYPE":"PAYLOAD","APOAPSIS":"540.293","MEAN_ELEMENT_THEORY":"SGP4","EPOCH":"2023-06-25T16:05:25.285920","ECCENTRICITY":"0.00007840","SITE":"AFETR","COUNTRY_CODE":"US","EPHEMERIS_TYPE":"0","MEAN_MOTION":"15.08838194","CENTER_NAME":"EARTH","PERIOD":"95.438","REF_FRAME":"TEME","MEAN_MOTION_DOT":"0.00004457","CLASSIFICATION_TYPE":"U","RCS_SIZE":"LARGE","REV_AT_EPOCH":"5165","OBJECT_NAME":"STARLINK-4135","BSTAR":"0.00029792000000","INCLINATION":"53.2159","ARG_OF_PERICENTER":"101.6970","PERIAPSIS":"539.209","DECAY_DATE":null,"LAUNCH_DATE":"2022-07-24","MEAN_ANOMALY":"258.4110","ELEMENT_SET_NO":"999","MEAN_MOTION_DDOT":"0.0000000000000","RA_OF_ASC_NODE":"314.6197","NORAD_CAT_ID":"53248","GP_ID":"234551154","TLE_LINE1":"1 53248U 22086G   23176.67043155  .00004457  00000-0  29792-3 0  9992","OBJECT_ID":"2022-086G","FILE":"3942727","SEMIMAJOR_AXIS":"6917.886","TIME_SYSTEM":"UTC"}];
